SAR-LUPE 2              
1 31797U 07030A   26197.61465656  .00025506  00000+0  39973-3 0  9992
2 31797  98.1064 305.7980 0004853 197.6640 162.4444 15.53699700 61504
SAPPHIRE                
1 39088U 13009C   26197.58150040  .00000027  00000+0  24439-4 0  9993
2 39088  98.4275  16.3413 0011670 155.9599 204.2134 14.35247781700792
PRAETORIAN SDA_602      
1 65565U 25203A   26197.44744858  .00000029  00000+0  15250-4 0  9995
2 65565  81.3045 343.6769 0007093 114.7310 245.4585 13.83887959 42745
PRAETORIAN SDA_603      
1 65566U 25203B   26197.47565223  .00005220  00000+0  46897-2 0  9993
2 65566  81.3048 343.5722 0010484 110.9018 249.3262 13.83931410 42756
PRAETORIAN SDA_604      
1 65567U 25203C   26197.44173275  .00000026  00000+0  12762-4 0  9998
2 65567  81.3067 344.0615 0006612 118.5579 241.6243 13.83050101 42729
PRAETORIAN SDA_605      
1 65568U 25203D   26197.47362196  .00000033  00000+0  19565-4 0  9990
2 65568  81.3032 343.6722 0009334 110.1511 250.0650 13.83200139 42740
PRAETORIAN SDA_606      
1 65569U 25203E   26197.45879575  .00000022  00000+0  87862-5 0  9997
2 65569  81.3069 343.9243 0007200 113.1414 247.0502 13.83200109 42735
PRAETORIAN SDA_607      
1 65570U 25203F   26197.44864447  .00000140  00000+0  11546-3 0  9995
2 65570  81.3053 343.5525 0009984 111.0128 249.2098 13.83758772 42759
PRAETORIAN SDA_608      
1 65571U 25203G   26197.50341690  .00000034  00000+0  20102-4 0  9994
2 65571  81.3021 343.6650 0007093 117.1247 243.0634 13.83819513 42741
PRAETORIAN SDA_609      
1 65572U 25203H   26197.50002517  .00000112  00000+0  89547-4 0  9992
2 65572  81.3063 343.6456 0007990 112.0605 248.1401 13.84211646 42753
PRAETORIAN SDA_610      
1 65573U 25203J   26197.48558953  .00000055  00000+0  39440-4 0  9993
2 65573  81.3023 343.6450 0007823 116.6704 243.5254 13.83528327 42749
PRAETORIAN SDA_611      
1 65574U 25203K   26197.49470287  .00000341  00000+0  30019-3 0  9998
2 65574  81.3031 343.8195 0006686 120.9176 239.2638 13.83310841 42731
PRAETORIAN SDA_612      
1 65575U 25203L   26197.44774683  .00000105  00000+0  81943-4 0  9992
2 65575  81.3043 343.3775 0010403 112.1324 248.0939 13.85041050 42764
PRAETORIAN SDA_613      
1 65576U 25203M   26197.44060547  .00000037  00000+0  23300-4 0  9997
2 65576  81.3013 343.8895 0006800 112.0783 248.1096 13.82767774 42720
PRAETORIAN SDA_614      
1 65577U 25203N   26197.44245131  .00000026  00000+0  12464-4 0  9999
2 65577  81.3029 343.4676 0008243 110.2966 249.9078 13.84778630 42765
PRAETORIAN SDA_615      
1 65578U 25203P   26197.49880694  .00000112  00000+0  89057-4 0  9992
2 65578  81.3038 343.3979 0010144 110.5545 249.6701 13.84438020 42766
PRAETORIAN SDA_616      
1 65579U 25203Q   26197.49478971  .00000126  00000+0  10396-3 0  9998
2 65579  81.3078 343.9848 0006589 119.1141 241.0676 13.83269982 42739
PRAETORIAN SDA_617      
1 65580U 25203R   26197.44655687  .00000035  00000+0  21015-4 0  9996
2 65580  81.3051 343.8575 0008504 110.6375 249.5694 13.83152204 42733
PRAETORIAN SDA_618      
1 65581U 25203S   26197.46635298  .00000108  00000+0  86333-4 0  9990
2 65581  81.3035 343.3602 0010897 113.7976 246.4324 13.84225690 42761
PRAETORIAN SDA_619      
1 65582U 25203T   26197.44184375  .00000106  00000+0  85233-4 0  9990
2 65582  81.3059 343.7120 0009386 111.8211 248.3945 13.83806279 43374
PRAETORIAN SDA_620      
1 65583U 25203U   26197.47748139  .00000106  00000+0  85604-4 0  9990
2 65583  81.3045 343.7126 0008699 107.8451 252.3655 13.83208792 42742
PRAETORIAN SDA_621      
1 65584U 25203V   26197.44368299  .00000026  00000+0  12788-4 0  9997
2 65584  81.3034 343.6425 0008504 106.0329 254.1765 13.83803833 42741
PRAETORIAN SDA_601      
1 65585U 25203W   26197.50004398 -.00000122  00000+0 -12251-3 0  9995
2 65585  81.3062 343.9197 0006544 122.0492 238.1300 13.83169206 42738
VICTUS HAZE PUMA        
1 69646U 26142A   26197.29810792  .00001778  00000+0  84764-4 0  9994
2 69646  97.4461  94.5882 0022441 264.2185  95.6491 15.20227445  4090
